{
    "CCSDS_OMM_VERS": "3.0",
    "COMMENT": "GENERATED VIA SPACE-TRACK.ORG API",
    "CREATION_DATE": "2025-11-22T18:56:57",
    "ORIGINATOR": "18 SPCS",
    "OBJECT_NAME": "COSMOS 2514 (GLONASS)",
    "OBJECT_ID": "2016-008A",
    "CENTER_NAME": "EARTH",
    "REF_FRAME": "TEME",
    "TIME_SYSTEM": "UTC",
    "MEAN_ELEMENT_THEORY": "SGP4",
    "EPOCH": "2025-11-22T08:11:32.448192",
    "MEAN_MOTION": "2.13102635",
    "ECCENTRICITY": "0.00128083",
    "INCLINATION": "65.1453",
    "RA_OF_ASC_NODE": "320.1030",
    "ARG_OF_PERICENTER": "219.3649",
    "MEAN_ANOMALY": "140.5535",
    "EPHEMERIS_TYPE": "0",
    "CLASSIFICATION_TYPE": "U",
    "NORAD_CAT_ID": "41330",
    "ELEMENT_SET_NO": "999",
    "REV_AT_EPOCH": "7621",
    "BSTAR": "0.00000000000000",
    "MEAN_MOTION_DOT": "-0.00000037",
    "MEAN_MOTION_DDOT": "0.0000000000000",
    "SEMIMAJOR_AXIS": "25507.974",
    "PERIOD": "675.731",
    "APOAPSIS": "19162.510",
    "PERIAPSIS": "19097.167",
    "OBJECT_TYPE": "PAYLOAD",
    "RCS_SIZE": "LARGE",
    "COUNTRY_CODE": "CIS",
    "LAUNCH_DATE": "2016-02-07",
    "SITE": "PKMTR",
    "DECAY_DATE": null,
    "FILE": "4894246",
    "GP_ID": "303252955",
    "TLE_LINE0": "0 COSMOS 2514 (GLONASS)",
    "TLE_LINE1": "1 41330U 16008A   25326.34134778 -.00000037  00000-0  00000-0 0  9992",
    "TLE_LINE2": "2 41330  65.1453 320.1030 0012808 219.3649 140.5535  2.13102635 76211"
}